CAS-2T & KS-1Q          
1 41847U 16066G   21028.77226235  .00000141  00000-0  32543-4 0  9997
2 41847  98.6232  87.1819 0364284 277.2319  78.7600 14.38140285221805
NAYIF-1 (EO-88)         
1 42017U 17008BX  21028.92485046  .00002427  00000-0  93139-4 0  9995
2 42017  97.3345  98.9699 0004709 233.5940 126.4866 15.27426562219952
ZHUHAI-1 02 (CAS-4B)    
1 42759U 17034B   21028.87442014  .00000339  00000-0  33846-4 0  9998
2 42759  43.0170 228.3462 0010254   1.6536 130.1274 15.10054188200041
ZHUHAI-1 01 (CAS-4A)    
1 42761U 17034D   21028.94118787  .00000389  00000-0  36801-4 0  9995
2 42761  43.0170 227.1295 0010536   3.6214 139.2531 15.10135380200054
MAX VALIER SAT          
1 42778U 17036P   21028.78827799  .00001492  00000-0  65972-4 0  9994
2 42778  97.2762  81.8569 0010663 314.3128  45.7234 15.23171152200025
RADFXSAT (FOX-1B)       
1 43017U 17073E   21028.80239732  .00001226  00000-0  99243-4 0  9992
2 43017  97.7170 298.2684 0256765  36.1390 325.6872 14.79279762172478
FOX-1D (AO-92)          
1 43137U 18004AC  21028.76893623  .00001830  00000-0  76756-4 0  9995
2 43137  97.4225 104.1741 0008557 354.1213   5.9923 15.24755938169374
DIWATA-2B               
1 43678U 18084H   21028.86509395  .00000120  00000-0  17656-4 0  9999
2 43678  97.9050 153.6086 0010705 145.2565 214.9328 14.91702730122626
ES'HAIL 2               
1 43700U 18090A   21028.52466128  .00000151  00000-0  00000-0 0  9996
2 43700   0.0169  83.9341 0002295 263.3118 355.4365  1.00272146  7968
FOX-1CLIFF (AO-95)      
1 43770U 18099N   21028.65445302  .00000286  00000-0  31198-4 0  9992
2 43770  97.6821 101.8295 0015116 160.2565 199.9244 14.95179300117568
ITASAT 1                
1 43786U 18099AE  21028.46820409  .00000673  00000-0  65789-4 0  9996
2 43786  97.6839 102.2273 0015941 154.4738 205.7274 14.95492477117560
JY1SAT (JO-97)          
1 43803U 18099AX  21028.65441249  .00000290  00000-0  31153-4 0  9991
2 43803  97.6800 102.1816 0015808 154.2348 205.9664 14.95708635117591
PSAT2 (NO-104)          
1 44354U 19036R   21028.98193487  .00009515  00000-0  12904-3 0  9990
2 44354  28.5318 334.0163 0342283 208.5352 149.6104 15.09138541 87856
BRICSAT2 (NO-103)       
1 44355U 19036S   21028.95472200  .00018499  00000-0  22626-3 0  9994
2 44355  28.5305 308.2192 0299961 250.5288 106.2669 15.20051514 88119
JAISAT-1                
1 44419U 19038F   21028.94501055  .00001440  00000-0  84102-4 0  9993
2 44419  97.5701 354.3686 0022847  74.3533 286.0217 15.13330497 86697
DUCHIFAT-3              
1 44854U 19089C   21028.88163148  .00000481  00000-0  45034-4 0  9997
2 44854  36.9648 205.9169 0006924  79.1763 280.9759 14.99306606 62146
RS-44 & BREEZE-KM R/B   
1 44909U 19096E   21028.75926178  .00000008  00000-0 -18824-4 0  9995
2 44909  82.5199 205.6091 0218203  59.8804 302.3729 12.79708426 51003
ORBITAL FACTORY 2 (OF-2)
1 45113U 19071C   21028.90878863  .00003805  00000-0  12248-3 0  9990
2 45113  51.6435 353.5560 0012724 146.8272 213.3511 15.34676251 55739
HUSKYSAT-1              
1 45119U 19071J   21028.92642776  .00002262  00000-0  77144-4 0  9993
2 45119  51.6431 352.9223 0012104 143.1659 217.0157 15.34789119 55736
BY70-2                  
1 45857U 20042B   21028.86982325  .00001052  00000-0  15785-3 0  9990
2 45857  97.9968 106.0440 0009598 304.7805  55.2502 14.76649031 30948
SALSAT                  
1 46495U 20068K   21028.95638206  .00000751  00000-0  59731-4 0  9998
2 46495  97.6825 327.3943 0017134 179.5301 180.5940 15.03341145 18373
BY70-3                  
1 46839U 20079N   21028.91410279  .00003635  00000-0  11740-3 0  9997
2 46839  97.2568 105.5358 0006958   0.7028 110.1185 15.32719307 12829
OSCAR 7 (AO-7)          
1 07530U 74089B   21028.90759771 -.00000046  00000-0 -50508-5 0  9996
2 07530 101.8355   3.6632 0012039 291.1991  83.1834 12.53647126114243
